Adesa Jacksonville	master.csv	{"website": "adesa.com", "city": "Jacksonville", "zip": "32219", "op_address_source": "", "phone": "9047641004", "state": "FL", "address_1": "11700 New Kings Road", "address_2": "", "id": "110021", "company_name": "Adesa Jacksonville"}
Adesa Jacksonville	sub.csv	{"website": "http://www.adesa.com", "city": "Jacksonville", "fax": "(0904)768-0029", "po_box_zip": "", "zip": "32219", "toll_free": "", "op_address_source": "", "po_box_city": "", "po_box_state": "", "phone": "(0904)764-1004", "state": "FL", "op_po_box_source": "", "address_1": "11700 New Kings Rd", "address_2": "", "po_box": "", "company_email": "", "id": "110021", "company_name": "Adesa Jacksonville"}
Advance Technologies In Home Inc	sub.csv	{"website": "", "city": "Richmond", "fax": "(0804)359-3400", "po_box_zip": "", "zip": "23230-3827", "toll_free": "", "op_address_source": "", "po_box_city": "", "po_box_state": "", "phone": "(0804)359-3400", "state": "VA", "op_po_box_source": "", "address_1": "4116 Fitzhugh Avenue", "address_2": "", "po_box": "", "company_email": "", "id": "110023", "company_name": "Advance Technologies In Home Inc"}
Alden Shoe Co.	sub.csv	{"website": "www.aldenshoe.com", "city": "Middleboro", "fax": "(0508)947-7753", "po_box_zip": "", "zip": "2346", "toll_free": "", "op_address_source": "http://www.hoovers.com/company/Alden_Shoe_Company_Inc/rfcrxtr-1.html", "po_box_city": "", "po_box_state": "", "phone": "(0508)947-3926", "state": "MA", "op_po_box_source": "", "address_1": "1 Taunton St.", "address_2": "", "po_box": "", "company_email": "info@aldenshoe.com", "id": "155", "company_name": "Alden Shoe Co."}
Alps Sportswear Mfg. Co., Inc.	sub.csv	{"website": "www.alps-sportswear.com", "city": "Lawrence", "fax": "(0978)686-8051", "po_box_zip": "", "zip": "1840", "toll_free": "", "op_address_source": "http://www.hoovers.com/company/Alps_Sportswear_Mfg_Co_Inc/rftffxf-1.html", "po_box_city": "", "po_box_state": "", "phone": "(0978)683-2438", "state": "MA", "op_po_box_source": "", "address_1": "15 Union St.", "address_2": "", "po_box": "", "company_email": "alps@alps-sportswear.com", "id": "79", "company_name": "Alps Sportswear Mfg. Co., Inc."}
American Brush Company Inc	master.csv	{"website": "americanbrush.com", "city": "Claremont", "zip": "03743-5123", "op_address_source": "http://www.bizdays.com/NewHampshire/bizid-92464.html", "phone": "6312533333", "state": "NH", "address_1": "300 Industrial Boulevard", "address_2": "", "id": "76", "company_name": "American Brush Company Inc"}
American Brush Company Inc	sub.csv	{"website": "http://www.americanbrush.com", "city": "Claremont", "fax": "(0631)253-0429", "po_box_zip": "", "zip": "03743-5123", "toll_free": "", "op_address_source": "http://www.bizdays.com/NewHampshire/bizid-92464.html", "po_box_city": "", "po_box_state": "", "phone": "(0631)253-3333", "state": "NH", "op_po_box_source": "", "address_1": "300 Industrial Boulevard", "address_2": "", "po_box": "", "company_email": "info@americanbrush.com", "id": "76", "company_name": "American Brush Company Inc"}
Arthur Blank & Co., Inc.	sub.csv	{"website": "www.arthurblank.com", "city": "Boston", "fax": "(0617)327-1235", "po_box_zip": "", "zip": "2132", "toll_free": "(0800)776-7333", "op_address_source": "http://www.hoovers.com/company/Arthur_Blank__Company_Inc/rtsjtxi-1.html", "po_box_city": "", "po_box_state": "", "phone": "(0617)325-9600", "state": "MA", "op_po_box_source": "", "address_1": "225 Rivermoor St.", "address_2": "", "po_box": "", "company_email": "abco@abco.com", "id": "88", "company_name": "Arthur Blank & Co., Inc."}
Artisan Industries, Inc.	sub.csv	{"website": "http://www.artisanind.com", "city": "Waltham", "fax": "(0781)647-0143", "po_box_zip": "", "zip": "2451", "toll_free": "", "op_address_source": "http://www.hoovers.com/company/Artisan_Industries_Inc/rfthsxf-1.html;http://investing.businessweek.com/research/stocks/private/people.asp?privcapId=6910535", "po_box_city": "", "po_box_state": "", "phone": "(0781)893-6800", "state": "MA", "op_po_box_source": "", "address_1": "73 Pond St.", "address_2": "", "po_box": "", "company_email": "info@artisanind.com", "id": "109", "company_name": "Artisan Industries, Inc."}
Ashworth Bros Inc	master.csv	{"website": "ashworth.com", "city": "Fall River", "zip": "02721-1623", "op_address_source": "http://www.hoovers.com/company/Ashworth_Bros_Inc/rfyhxrh-1.html", "phone": "5086744693", "state": "MA", "address_1": "222 Milliken Boulevard", "address_2": "Suite 4", "id": "137", "company_name": "Ashworth Bros Inc"}
Ashworth Bros Inc	sub.csv	{"website": "http://www.ashworth.com", "city": "Fall River", "fax": "(0540)675-9622", "po_box_zip": "", "zip": "02721-1623", "toll_free": "", "op_address_source": "http://www.hoovers.com/company/Ashworth_Bros_Inc/rfyhxrh-1.html", "po_box_city": "", "po_box_state": "", "phone": "(0508)674-4693", "state": "MA", "op_po_box_source": "", "address_1": "222 Milliken Boulevard", "address_2": "Suite 4", "po_box": "", "company_email": "service@ashworth.com", "id": "137", "company_name": "Ashworth Bros Inc"}
Avon Home Fashions, Inc.	sub.csv	{"website": "", "city": "Braintree", "fax": "(0781)843-9601", "po_box_zip": "", "zip": "2184", "toll_free": "", "op_address_source": "http://www.bizdays.com/Massachusetts/bizid-638759.html", "po_box_city": "", "po_box_state": "", "phone": "(0781)843-9600", "state": "MA", "op_po_box_source": "", "address_1": "75 Lundquist Dr.", "address_2": "", "po_box": "", "company_email": "", "id": "142", "company_name": "Avon Home Fashions, Inc."}
Baker Drywall Ltd Fort Worth	sub.csv	{"website": "http://bakertriangle.com", "city": "Fort Worth", "fax": "(0817)810-0179", "po_box_zip": "", "zip": "76102", "toll_free": "", "op_address_source": "", "po_box_city": "", "po_box_state": "", "phone": "(0817)810-0180", "state": "TX", "op_po_box_source": "", "address_1": "2213 W Broadway St", "address_2": "", "po_box": "", "company_email": "", "id": "111280", "company_name": "Baker Drywall Ltd Fort Worth"}
Basketville Inc	sub.csv	{"website": "www.basketville.com", "city": "Putney", "fax": "(0802)387-5235", "po_box_zip": "", "zip": "05346-8681", "toll_free": "(0800)258-4553", "op_address_source": "http://www.hoovers.com/company/Basketville_Inc/rfkxchf-1.html", "po_box_city": "", "po_box_state": "", "phone": "(0802)387-5509", "state": "VT", "op_po_box_source": "", "address_1": "8 Bellows Falls Road", "address_2": "", "po_box": "", "company_email": "sales@basketville.com", "id": "234", "company_name": "Basketville Inc"}
Bixby International Corporation	master.csv	{"website": "bixbyintl.com", "city": "Newburyport", "zip": "01950-4065", "op_address_source": "http://www.bixbyintl.com/contact.shtml", "phone": "9784624100", "state": "MA", "address_1": "1 Preble Road", "address_2": "", "id": "28", "company_name": "Bixby International Corporation"}
Bixby International Corporation	sub.csv	{"website": "www.bixbyintl.com", "city": "Newburyport", "fax": "(0978)465-5184", "po_box_zip": "", "zip": "01950-4065", "toll_free": "(0800)466-4102", "op_address_source": "http://www.bixbyintl.com/contact.shtml", "po_box_city": "", "po_box_state": "", "phone": "(0978)462-4100", "state": "MA", "op_po_box_source": "", "address_1": "1 Preble Rd", "address_2": "", "po_box": "", "company_email": "info@bixbyintl.com", "id": "28", "company_name": "Bixby International Corporation"}
Boston Sausage & Provision	master.csv	{"website": "", "city": "Newton", "zip": "02459-3212", "op_address_source": "http://www.hoovers.com/company/Boston_Sausage__Provision_Inc/rfyhsfj-1.html", "phone": "6179695600", "state": "MA", "address_1": "7 Wells Avenue", "address_2": "Suite 2-2", "id": "139", "company_name": "Boston Sausage & Provision"}
Boston Sausage & Provision	sub.csv	{"website": "", "city": "Newton", "fax": "(0617)964-8340", "po_box_zip": "", "zip": "02459-3212", "toll_free": "", "op_address_source": "http://www.hoovers.com/company/Boston_Sausage__Provision_Inc/rfyhsfj-1.html", "po_box_city": "", "po_box_state": "", "phone": "(0617)969-5600", "state": "MA", "op_po_box_source": "", "address_1": "7 Wells Ave", "address_2": "Suite 2-2", "po_box": "", "company_email": "", "id": "139", "company_name": "Boston Sausage & Provision"}
Boston Showcase Company	sub.csv	{"website": "http://www.bostonshowcase.com", "city": "Newton", "fax": "(0617)965-6326", "po_box_zip": "", "zip": "02461-1720", "toll_free": "(0800)422-5290", "op_address_source": "http://www.bostonshowcase.com/ContactUs.aspx", "po_box_city": "", "po_box_state": "", "phone": "(0617)965-1100", "state": "MA", "op_po_box_source": "", "address_1": "66 Winchester Street", "address_2": "", "po_box": "", "company_email": "info@bostonshowcase.com", "id": "92", "company_name": "Boston Showcase Company"}
Cambridge Tool & Mfg.	master.csv	{"website": "cambridgetool.com", "city": "North Billerica", "zip": "1862", "op_address_source": "http://www.bizdays.com/Massachusetts/bizid-579963.html", "phone": "9786678400", "state": "MA", "address_1": "67 Faulkner Street.", "address_2": "", "id": "97", "company_name": "Cambridge Tool & Mfg."}
Cambridge Tool & Mfg.	sub.csv	{"website": "www.cambridgetool.com", "city": "North Billerica", "fax": "(0978)667-4104", "po_box_zip": "", "zip": "1862", "toll_free": "", "op_address_source": "http://www.bizdays.com/Massachusetts/bizid-579963.html", "po_box_city": "", "po_box_state": "", "phone": "(0978)667-8400", "state": "MA", "op_po_box_source": "", "address_1": "67 Faulkner St.", "address_2": "", "po_box": "", "company_email": "sales@paceind.com", "id": "97", "company_name": "Cambridge Tool & Mfg."}
Carpenter & Paterson, Inc.	master.csv	{"website": "carpenterandpaterson.com", "city": "Woburn", "zip": "1801", "op_address_source": "http://www.hoovers.com/company/Carpenter__Paterson_Inc/rfhfstr-1.html", "phone": "7819352950", "state": "MA", "address_1": "225 Merrimac Street.", "address_2": "", "id": "185", "company_name": "Carpenter & Paterson, Inc."}
Carpenter & Paterson, Inc.	sub.csv	{"website": "www.carpenterandpaterson.com", "city": "Woburn", "fax": "(0781)935-7664", "po_box_zip": "01888-4011", "zip": "1801", "toll_free": "", "op_address_source": "http://www.hoovers.com/company/Carpenter__Paterson_Inc/rfhfstr-1.html", "po_box_city": "Woburn", "po_box_state": "MA", "phone": "(0781)935-2950", "state": "MA", "op_po_box_source": "", "address_1": "225 Merrimac St.", "address_2": "", "po_box": "P.O.Box 4011", "company_email": "witchcandp@aol.com", "id": "185", "company_name": "Carpenter & Paterson, Inc."}
Courier Westford, Inc.	master.csv	{"website": "courier.com", "city": "North Chelmsford", "zip": "1863", "op_address_source": "http://www.hoovers.com/company/Courier_Corporation/ryrtci-1.html", "phone": "9782516000", "state": "MA", "address_1": "15 Wellman Avenue", "address_2": "", "id": "165", "company_name": "Courier Westford, Inc."}
Courier Westford, Inc.	sub.csv	{"website": "www.courier.com", "city": "North Chelmsford", "fax": "(0978)251-8228", "po_box_zip": "", "zip": "1863", "toll_free": "", "op_address_source": "http://www.hoovers.com/company/Courier_Corporation/ryrtci-1.html", "po_box_city": "", "po_box_state": "", "phone": "(0978)251-6000", "state": "MA", "op_po_box_source": "", "address_1": "15 Wellman Avenue", "address_2": "", "po_box": "", "company_email": "marketing@courier.com", "id": "165", "company_name": "Courier Westford, Inc."}
Craftmatic Of California, Inc	sub.csv	{"website": "", "city": "Langhorne", "fax": "(0215)639-9941", "po_box_zip": "", "zip": "19053", "toll_free": "", "op_address_source": "", "po_box_city": "", "po_box_state": "", "phone": "(0215)639-1310", "state": "PA", "op_po_box_source": "", "address_1": "2500 Interplex Dr Ste 1", "address_2": "", "po_box": "", "company_email": "", "id": "111416", "company_name": "Craftmatic Of California, Inc"}
Crosby Valve Inc	master.csv	{"website": "crosbyvalve.com", "city": "Wrentham", "zip": "02093-1544", "op_address_source": "http://www.hoovers.com/company/Crosby_Valve_Inc/rfrtjky-1.html", "phone": "5083843121", "state": "MA", "address_1": "43 Kendrick Street", "address_2": "", "id": "55", "company_name": "Crosby Valve Inc"}
Crosby Valve Inc	sub.csv	{"website": "http://www.crosbyvalve.com", "city": "Wrentham", "fax": "(0508)384-8675", "po_box_zip": "", "zip": "02093-1544", "toll_free": "", "op_address_source": "http://www.hoovers.com/company/Crosby_Valve_Inc/rfrtjky-1.html", "po_box_city": "", "po_box_state": "", "phone": "(0508)384-3121", "state": "MA", "op_po_box_source": "", "address_1": "43 Kendrick Street", "address_2": "", "po_box": "", "company_email": "", "id": "55", "company_name": "Crosby Valve Inc"}
Crown Clothing Corp	master.csv	{"website": "crownclothingcorp.com", "city": "Norwood", "zip": "02062-5008", "op_address_source": "http://www.hoovers.com/company/Crown_Clothing_Business_Trust/rfcfsrc-1.html", "phone": "7817690001", "state": "MA", "address_1": "340 Vanderbilt Avenue", "address_2": "", "id": "153", "company_name": "Crown Clothing Corp"}
Crown Clothing Corp	sub.csv	{"website": "http://www.crownclothingcorp.com", "city": "Norwood", "fax": "(0781)769-7337", "po_box_zip": "", "zip": "02062-5008", "toll_free": "", "op_address_source": "http://www.hoovers.com/company/Crown_Clothing_Business_Trust/rfcfsrc-1.html", "po_box_city": "", "po_box_state": "", "phone": "(0781)769-0001", "state": "MA", "op_po_box_source": "", "address_1": "340 Vanderbilt Avenue", "address_2": "", "po_box": "", "company_email": "cservcrown@aol.com", "id": "153", "company_name": "Crown Clothing Corp"}
Cummins Intermountain, Llc	master.csv	{"website": "http://cumminsrmi.com", "city": "Henderson", "zip": "80640", "op_address_source": "", "phone": "3032870201", "state": "CO", "address_1": "8211 East 96th Avenue", "address_2": "", "id": "110247", "company_name": "Cummins Intermountain, Llc"}
Cummins Intermountain, Llc	sub.csv	{"website": "http://cumminsrmi.com", "city": "Henderson", "fax": "(0303)288-7080", "po_box_zip": "", "zip": "80640", "toll_free": "", "op_address_source": "", "po_box_city": "", "po_box_state": "", "phone": "(0303)287-0201", "state": "CO", "op_po_box_source": "", "address_1": "8211 E 96th Ave", "address_2": "", "po_box": "", "company_email": "", "id": "110247", "company_name": "Cummins Intermountain, Llc"}
Davidson Pipe Supply Co , Inc	sub.csv	{"website": "www.davidsonpipe.com", "city": "Brooklyn", "fax": "(0718)439-8078", "po_box_zip": "", "zip": "11232", "toll_free": "", "op_address_source": "", "po_box_city": "", "po_box_state": "", "phone": "(0718)439-6300", "state": "NY", "op_po_box_source": "", "address_1": "5002 2nd Ave", "address_2": "", "po_box": "", "company_email": "", "id": "110261", "company_name": "Davidson Pipe Supply Co , Inc"}
Dd North Phase Ii L C	sub.csv	{"website": "", "city": "Fairfax", "fax": "(0703)631-6481", "po_box_zip": "", "zip": "22033", "toll_free": "", "op_address_source": "", "po_box_city": "", "po_box_state": "", "phone": "(0703)227-2000", "state": "VA", "op_po_box_source": "", "address_1": "12500 Fair Lakes Cir", "address_2": "", "po_box": "", "company_email": "", "id": "110263", "company_name": "Dd North Phase Ii L C"}
Decor Holdings, Inc	master.csv	{"website": "", "city": "Foxboro", "zip": "2035", "op_address_source": "", "phone": "5083399151", "state": "MA", "address_1": "225 Foxboro Boulevard", "address_2": "", "id": "110266", "company_name": "Decor Holdings, Inc"}
Decor Holdings, Inc	sub.csv	{"website": "", "city": "Foxboro", "fax": "(0508)261-7190", "po_box_zip": "", "zip": "2035", "toll_free": "", "op_address_source": "", "po_box_city": "", "po_box_state": "", "phone": "(0508)339-9151", "state": "MA", "op_po_box_source": "", "address_1": "225 Foxboro Blvd", "address_2": "", "po_box": "", "company_email": "", "id": "110266", "company_name": "Decor Holdings, Inc"}
Depe, Llc	sub.csv	{"website": "http://www.pellaoki.com", "city": "Mason", "fax": "(0513)761-1330", "po_box_zip": "", "zip": "45040", "toll_free": "", "op_address_source": "", "po_box_city": "", "po_box_state": "", "phone": "(0513)948-8480", "state": "OH", "op_po_box_source": "", "address_1": "7697 Innovation Way", "address_2": "", "po_box": "", "company_email": "bretth@pellaoki.com", "id": "111448", "company_name": "Depe, Llc"}
Dodge Company Inc	master.csv	{"website": "dodgeco.com", "city": "Cambridge", "zip": "2140", "op_address_source": "http://www.dodgeco.com/contact.html", "phone": "6176610500", "state": "MA", "address_1": "165 Cambridge Parks Drive", "address_2": "", "id": "173", "company_name": "Dodge Company Inc"}
Dodge Company Inc	sub.csv	{"website": "www.dodgeco.com", "city": "Cambridge", "fax": "(0800)443-4034", "po_box_zip": "", "zip": "2140", "toll_free": "(0800)443-6343", "op_address_source": "http://www.dodgeco.com/contact.html", "po_box_city": "", "po_box_state": "", "phone": "(0617)661-0500", "state": "MA", "op_po_box_source": "", "address_1": "165 Cambridge Park Drive", "address_2": "", "po_box": "", "company_email": "custserv@dodgeco.com", "id": "173", "company_name": "Dodge Company Inc"}
Doms Sausage Co Inc	sub.csv	{"website": "www.domssausage.com", "city": "Acton", "fax": "(0781)322-6776", "po_box_zip": "", "zip": "1720", "toll_free": "", "op_address_source": "http://www.menuism.com/restaurants/doms-sausage-co-inc-acton-450458", "po_box_city": "", "po_box_state": "", "phone": "(0978)263-5943", "state": "MA", "op_po_box_source": "", "address_1": "366 Central St.", "address_2": "", "po_box": "", "company_email": "info@domsausage.com", "id": "161", "company_name": "Doms Sausage Co Inc"}
Enterprise Publishing Company LLC	sub.csv	{"website": "www.enterprisenews.com", "city": "Brockton", "fax": "(0508)427-4027", "po_box_zip": "02303-1450", "zip": "02301-4040", "toll_free": "(0800)442-6581", "op_address_source": "http://www.enterprisenews.com/lifestyle/x818360879/PAGE-2-news-notes-for-MON-DAY;http://www.enterprisenews.com/archive/x1973325566", "po_box_city": "Brockton", "po_box_state": "MA", "phone": "(0508)586-6200", "state": "MA", "op_po_box_source": "http://www.enterprisenews.com/archive/x944743756/PAGE-2-news-notes-for-Dec-12", "address_1": "60 Main St", "address_2": "", "po_box": "P.O.Box 1450", "company_email": "letters@enterprisenews.com", "id": "164", "company_name": "Enterprise Publishing Company LLC"}
Eschelon Telecom Of Minnesota Inc	master.csv	{"website": "", "city": "Minneapolis", "zip": "55402", "op_address_source": "", "phone": "6123764400", "state": "MN", "address_1": "730 2nd Avenue South Ste 1200", "address_2": "", "id": "110328", "company_name": "Eschelon Telecom Of Minnesota Inc"}
Eschelon Telecom Of Minnesota Inc	sub.csv	{"website": "", "city": "Minneapolis", "fax": "(0612)376-4411", "po_box_zip": "", "zip": "55402", "toll_free": "", "op_address_source": "", "po_box_city": "", "po_box_state": "", "phone": "(0612)376-4400", "state": "MN", "op_po_box_source": "", "address_1": "730 2nd Ave S Ste 1200", "address_2": "", "po_box": "", "company_email": "camurray@eschelon.com", "id": "110328", "company_name": "Eschelon Telecom Of Minnesota Inc"}
Etrali North American, Llc	sub.csv	{"website": "", "city": "New York", "fax": "(0212)593-9138", "po_box_zip": "", "zip": "10017", "toll_free": "", "op_address_source": "", "po_box_city": "", "po_box_state": "", "phone": "(0212)593-3838", "state": "NY", "op_po_box_source": "", "address_1": "747 3rd Ave", "address_2": "", "po_box": "", "company_email": "", "id": "110330", "company_name": "Etrali North American, Llc"}
Extrusion Technology, Inc.	sub.csv	{"website": "www.xtech-outside.com", "city": "Randolph", "fax": "(0781)963-7203", "po_box_zip": "", "zip": "2368", "toll_free": "", "op_address_source": "http://www.xtech-outside.com/contact/contact_sales_team.html", "po_box_city": "", "po_box_state": "", "phone": "(0888)444-1644", "state": "MA", "op_po_box_source": "", "address_1": "358 North St", "address_2": "", "po_box": "", "company_email": "info@xtech-outside.com", "id": "46", "company_name": "Extrusion Technology, Inc."}
F J Lucido & Associates	sub.csv	{"website": "", "city": "Warren", "fax": "(0586)751-8815", "po_box_zip": "", "zip": "48093", "toll_free": "", "op_address_source": "", "po_box_city": "", "po_box_state": "", "phone": "(0586)751-8823", "state": "MI", "op_po_box_source": "", "address_1": "29400 Van Dyke Ave", "address_2": "", "po_box": "", "company_email": "", "id": "111527", "company_name": "F J Lucido & Associates"}
Felton Brush, Inc.	sub.csv	{"website": "www.feltonbrush.com", "city": "Londonderry", "fax": "(0800)329-0756", "po_box_zip": "", "zip": "3053", "toll_free": "", "op_address_source": "http://investing.businessweek.com/research/stocks/private/people.asp?privcapId=4662684", "po_box_city": "", "po_box_state": "", "phone": "(0603)425-0200", "state": "NH", "op_po_box_source": "", "address_1": "7 Burton Dr.", "address_2": "", "po_box": "", "company_email": "info@feltonbrush.com", "id": "80", "company_name": "Felton Brush, Inc."}
Findings, Inc.	sub.csv	{"website": "www.findingsinc.net", "city": "Keene", "fax": "(0603)352-5535", "po_box_zip": "03431-4290", "zip": "3431", "toll_free": "(0800)343-0806", "op_address_source": "http://www.hoovers.com/company/Findings_Incorporated/rfkkrtt-1.html", "po_box_city": "KEENE", "po_box_state": "NH", "phone": "(0603)352-3717", "state": "NH", "op_po_box_source": "http://www.powerprofiles.com/profile/00005139390490/FINDINGS+INCORPORATED-KEENE-NH-%28603%29+352-3717", "address_1": "160 Water St.", "address_2": "", "po_box": "P.O.Box P.O. BOX 462", "company_email": "", "id": "231", "company_name": "Findings, Inc."}
Flagship Press Inc	master.csv	{"website": "flagshippress.com", "city": "North Andover", "zip": "1845", "op_address_source": "http://www.flagshippress.com/about/Environmental_Responsibility.cfm", "phone": "9789753100", "state": "MA", "address_1": "150 Flagship Drive", "address_2": "", "id": "175", "company_name": "Flagship Press Inc"}
Flagship Press Inc	sub.csv	{"website": "www.flagshippress.com", "city": "North Andover", "fax": "(0978)975-0635", "po_box_zip": "", "zip": "1845", "toll_free": "(0800)733-1520", "op_address_source": "http://www.flagshippress.com/about/Environmental_Responsibility.cfm", "po_box_city": "", "po_box_state": "", "phone": "(0978)975-3100", "state": "MA", "op_po_box_source": "", "address_1": "150 Flagship Drive", "address_2": "", "po_box": "", "company_email": "info@flagshippress.com", "id": "175", "company_name": "Flagship Press Inc"}
Global Motorsports Parts Inc	sub.csv	{"website": "", "city": "Morgan Hill", "fax": "(0408)778-7001", "po_box_zip": "", "zip": "95037-2860", "toll_free": "", "op_address_source": "", "po_box_city": "", "po_box_state": "", "phone": "(0408)778-0500", "state": "CA", "op_po_box_source": "", "address_1": "18225 Serene Drive", "address_2": "", "po_box": "", "company_email": "", "id": "111592", "company_name": "Global Motorsports Parts Inc"}
Golden State Supply, Inc	sub.csv	{"website": "", "city": "Bakersfield", "fax": "(0661)324-3164", "po_box_zip": "", "zip": "93308", "toll_free": "", "op_address_source": "", "po_box_city": "", "po_box_state": "", "phone": "(0661)387-1295", "state": "CA", "op_po_box_source": "", "address_1": "34928 Mcmurtrey Ave", "address_2": "", "po_box": "", "company_email": "", "id": "111597", "company_name": "Golden State Supply, Inc"}
Goldx Financial Services Inc	sub.csv	{"website": "", "city": "Garden Grove", "fax": "", "po_box_zip": "", "zip": "92841", "toll_free": "", "op_address_source": "", "po_box_city": "", "po_box_state": "", "phone": "(0714)891-3000", "state": "CA", "op_po_box_source": "", "address_1": "7077 Orangewood Ave # 223", "address_2": "", "po_box": "", "company_email": "", "id": "111598", "company_name": "Goldx Financial Services Inc"}
Goulston Technologies, Inc.	master.csv	{"website": "goulston.com", "city": "Monroe", "zip": "28110", "op_address_source": "http://www.goulston.com/contactus.html", "phone": "7042896464", "state": "NC", "address_1": "700 North. Johnson Street.", "address_2": "", "id": "182", "company_name": "Goulston Technologies, Inc."}
Goulston Technologies, Inc.	sub.csv	{"website": "www.goulston.com", "city": "Monroe", "fax": "(0704)296-6400", "po_box_zip": "28111-5025", "zip": "28110", "toll_free": "(0800)468-5786", "op_address_source": "http://www.goulston.com/contactus.html", "po_box_city": "Monroe", "po_box_state": "NC", "phone": "(0704)289-6464", "state": "NC", "op_po_box_source": "http://www.goulston.com/Companyinfo.html", "address_1": "700 N. Johnson St.", "address_2": "", "po_box": "P.O.Box 5025", "company_email": "gtl@goulston.com", "id": "182", "company_name": "Goulston Technologies, Inc."}
Graphic Packaging Inc	master.csv	{"website": "JDCAHILL.COM", "city": "Hampton", "zip": "03842-1970", "op_address_source": "http://www.youinweb.com/profiles/03842/j-d-cahill-co_338365023.htm", "phone": "6039263391", "state": "NH", "address_1": "6 Merrill Industrial Drive", "address_2": "", "id": "248", "company_name": "Graphic Packaging Inc"}
Graphic Packaging Inc	sub.csv	{"website": "www.JDCAHILL.COM", "city": "Hampton", "fax": "(0603)230-5235", "po_box_zip": "", "zip": "03842-1970", "toll_free": "", "op_address_source": "http://www.youinweb.com/profiles/03842/j-d-cahill-co_338365023.htm", "po_box_city": "", "po_box_state": "", "phone": "(0603)926-3391", "state": "NH", "op_po_box_source": "", "address_1": "6 Merrill Industrial Dr", "address_2": "", "po_box": "", "company_email": "", "id": "248", "company_name": "Graphic Packaging Inc"}
G.S. Precision, Inc.	master.csv	{"website": "gsprecision.com", "city": "Brattleboro", "zip": "5301", "op_address_source": "http://www.gsprecision.com/contact", "phone": "8022575200", "state": "VT", "address_1": "101 John Seitz Drive.", "address_2": "", "id": "236", "company_name": "G.S. Precision, Inc."}
G.S. Precision, Inc.	sub.csv	{"website": "www.gsprecision.com", "city": "Brattleboro", "fax": "(0802)257-7937", "po_box_zip": "", "zip": "5301", "toll_free": "", "op_address_source": "http://www.gsprecision.com/contact", "po_box_city": "", "po_box_state": "", "phone": "(0802)257-5200", "state": "VT", "op_po_box_source": "", "address_1": "101 John Seitz Dr.", "address_2": "", "po_box": "", "company_email": "info@gsprecision.com", "id": "236", "company_name": "G.S. Precision, Inc."}
Haartz Corp.	sub.csv	{"website": "www.haartz.com", "city": "Acton", "fax": "(0978)264-2601", "po_box_zip": "", "zip": "1720", "toll_free": "(0800)263-7377", "op_address_source": "http://www.bizdays.com/Massachusetts/bizid-537679.html", "po_box_city": "", "po_box_state": "", "phone": "(0978)264-2600", "state": "MA", "op_po_box_source": "", "address_1": "87 Hayward Rd.", "address_2": "", "po_box": "", "company_email": "jcapron@haartz.com", "id": "90", "company_name": "Haartz Corp."}
Harrington Bros. Corp.	master.csv	{"website": "", "city": "Stoughton", "zip": "2072", "op_address_source": "http://www.yellowpages.com/Stoughton-MA/Harrington%20Bros%2E%20Corp%2E", "phone": "7813411999", "state": "MA", "address_1": "1043 Turnpike Street.", "address_2": "", "id": "203", "company_name": "Harrington Bros. Corp."}
Harrington Bros. Corp.	sub.csv	{"website": "", "city": "Stoughton", "fax": "(0781)341-3601", "po_box_zip": "", "zip": "2072", "toll_free": "", "op_address_source": "http://www.yellowpages.com/Stoughton-MA/Harrington%20Bros%2E%20Corp%2E", "po_box_city": "", "po_box_state": "", "phone": "(0781)341-1999", "state": "MA", "op_po_box_source": "", "address_1": "1043 Turnpike St.", "address_2": "", "po_box": "", "company_email": "", "id": "203", "company_name": "Harrington Bros. Corp."}
H.L. Bouton Company	sub.csv	{"website": "http://www.hlbouton.com", "city": "Wareham", "fax": "(0508)295-3521", "po_box_zip": "2532", "zip": "02571-1077", "toll_free": "(0800)426-1881", "op_address_source": "http://investing.businessweek.com/research/stocks/private/people.asp?privcapId=133913259", "po_box_city": "Buzzards Bay", "po_box_state": "MA", "phone": "(0508)295-3300", "state": "MA", "op_po_box_source": "", "address_1": "11 Kendrick Road", "address_2": "", "po_box": "P.O.Box P.O. Box 840", "company_email": "eyewear@hlbouton.com", "id": "221", "company_name": "H.L. Bouton Company"}
HP Hood LLC	sub.csv	{"website": "www.hphood.com", "city": "Chelsea", "fax": "(0617)887-8477", "po_box_zip": "", "zip": "02150-2301", "toll_free": "(0800)343-6592", "op_address_source": "http://www.hoovers.com/company/HP_Hood_LLC/ctshtsj-1.html", "po_box_city": "", "po_box_state": "", "phone": "(0617)887-3000", "state": "MA", "op_po_box_source": "", "address_1": "90 Everett Ave", "address_2": "", "po_box": "", "company_email": "sales@hphood.com", "id": "34", "company_name": "HP Hood LLC"}
Hub Folding Box Co., Inc.	sub.csv	{"website": "www.hubfoldingbox.com", "city": "Mansfield", "fax": "(0508)339-0102", "po_box_zip": "", "zip": "2048", "toll_free": "", "op_address_source": "http://www.hoovers.com/company/HUB_FOLDING_BOX_COMPANY_INC/rftyjry-1.html", "po_box_city": "", "po_box_state": "", "phone": "(0508)339-0005", "state": "MA", "op_po_box_source": "", "address_1": "774 Norfolk St.", "address_2": "", "po_box": "", "company_email": "", "id": "93", "company_name": "Hub Folding Box Co., Inc."}
IFP Incorporated	master.csv	{"website": "ifpinc.biz", "city": "Faribault", "zip": "55021-7798", "op_address_source": "http://www.ifpinc.biz/ifp/index.cfm/contact-us/", "phone": "5073342730", "state": "MN", "address_1": "2125 Airport Drive", "address_2": "", "id": "119", "company_name": "IFP Incorporated"}
IFP Incorporated	sub.csv	{"website": "www.ifpinc.biz", "city": "Faribault", "fax": "(0507)334-7969", "po_box_zip": "", "zip": "55021-7798", "toll_free": "(0800)997.4437", "op_address_source": "http://www.ifpinc.biz/ifp/index.cfm/contact-us/", "po_box_city": "", "po_box_state": "", "phone": "(0507)334-2730", "state": "MN", "op_po_box_source": "", "address_1": "2125 Airport Drive", "address_2": "", "po_box": "", "company_email": "sales@ifpinc.biz", "id": "119", "company_name": "IFP Incorporated"}
Information Technology, Inc	master.csv	{"website": "fiserv.com", "city": "Lincoln", "zip": "68512", "op_address_source": "", "phone": "4024232682", "state": "NE", "address_1": "1345 Old Cheney Road", "address_2": "", "id": "110488", "company_name": "Information Technology, Inc"}
Information Technology, Inc	sub.csv	{"website": "http://www.fiserv.com", "city": "Lincoln", "fax": "(0402)421-4266", "po_box_zip": "", "zip": "68512", "toll_free": "", "op_address_source": "", "po_box_city": "", "po_box_state": "", "phone": "(0402)423-2682", "state": "NE", "op_po_box_source": "", "address_1": "1345 Old Cheney Rd", "address_2": "", "po_box": "", "company_email": "sales.aspac@fiserv.com", "id": "110488", "company_name": "Information Technology, Inc"}
Insco Corp.	sub.csv	{"website": "www.inscocorp.com", "city": "Groton", "fax": "(0978)448-5155", "po_box_zip": "01450-0489", "zip": "1450", "toll_free": "", "op_address_source": "http://www.hoovers.com/company/Insco_Corporation/rfhtjtf-1.html", "po_box_city": "Groton", "po_box_state": "MA", "phone": "(0978)448-6369", "state": "MA", "op_po_box_source": "http://goliath.ecnext.com/coms2/product-compint-0000554442-page.html", "address_1": "412 Main St.", "address_2": "", "po_box": "P.O.Box 489", "company_email": "cs@inscocorp.com", "id": "189", "company_name": "Insco Corp."}
Installer Sales & Service Inc	master.csv	{"website": "", "city": "Fort Worth", "zip": "76111", "op_address_source": "", "phone": "8178345559", "state": "TX", "address_1": "208 Penland Street", "address_2": "", "id": "110493", "company_name": "Installer Sales & Service Inc"}
Installer Sales & Service Inc	sub.csv	{"website": "", "city": "Fort Worth", "fax": "(0817)834-0937", "po_box_zip": "", "zip": "76111", "toll_free": "", "op_address_source": "", "po_box_city": "", "po_box_state": "", "phone": "(0817)834-5559", "state": "TX", "op_po_box_source": "", "address_1": "208 Penland St", "address_2": "", "po_box": "", "company_email": "", "id": "110493", "company_name": "Installer Sales & Service Inc"}
Intcomex Holdings Llc	master.csv	{"website": "intcomex.com", "city": "Miami", "zip": "33178", "op_address_source": "", "phone": "3054776230", "state": "FL", "address_1": "3505 North West 107th Avenue", "address_2": "", "id": "110494", "company_name": "Intcomex Holdings Llc"}
Intcomex Holdings Llc	sub.csv	{"website": "www.intcomex.com", "city": "Miami", "fax": "(0305)477-5694", "po_box_zip": "", "zip": "33178", "toll_free": "", "op_address_source": "", "po_box_city": "", "po_box_state": "", "phone": "(0305)477-6230", "state": "FL", "op_po_box_source": "", "address_1": "3505 NW 107th Avenue", "address_2": "", "po_box": "", "company_email": "notesreq@intcomex.com", "id": "110494", "company_name": "Intcomex Holdings Llc"}
International Paper Box Mch Co	master.csv	{"website": "ipbmco.com", "city": "Nashua", "zip": "03062-3160", "op_address_source": "http://www.bizdays.com/NewHampshire/bizid-463079.html", "phone": "6038896651", "state": "NH", "address_1": "90 Northeastern Boulevard", "address_2": "", "id": "244", "company_name": "International Paper Box Mch Co"}
International Paper Box Mch Co	sub.csv	{"website": "ipbmco.com", "city": "Nashua", "fax": "(0603)882-2865", "po_box_zip": "", "zip": "03062-3160", "toll_free": "", "op_address_source": "http://www.bizdays.com/NewHampshire/bizid-463079.html", "po_box_city": "", "po_box_state": "", "phone": "(0603)889-6651", "state": "NH", "op_po_box_source": "", "address_1": "90 Northeastern Blvd", "address_2": "", "po_box": "", "company_email": "", "id": "244", "company_name": "International Paper Box Mch Co"}
J.L. Hammett Company	master.csv	{"website": "hammett.com", "city": "Braintree", "zip": "2184", "op_address_source": "http://www.spoke.com/info/c4JhQ5b/JLHammettCompany", "phone": "7818481000", "state": "MA", "address_1": "Hammett Place", "address_2": "", "id": "193", "company_name": "J.L. Hammett Company"}
J.L. Hammett Company	sub.csv	{"website": "www.hammett.com", "city": "Braintree", "fax": "(0781)848-0273", "po_box_zip": "02185-9057", "zip": "2184", "toll_free": "(0800)955-2200", "op_address_source": "http://www.spoke.com/info/c4JhQ5b/JLHammettCompany", "po_box_city": "Braintree", "po_box_state": "MA", "phone": "(0781)848-1000", "state": "MA", "op_po_box_source": "", "address_1": "Hammett Pl", "address_2": "", "po_box": "P.O.Box 859057", "company_email": "", "id": "193", "company_name": "J.L. Hammett Company"}
Kayem Foods, Inc.	master.csv	{"website": "kayem.com", "city": "Chelsea", "zip": "2150", "op_address_source": "http://www.kayem.com/contact/index.html", "phone": "6178891600", "state": "MA", "address_1": "75 Arlington Street.", "address_2": "", "id": "176", "company_name": "Kayem Foods, Inc."}
Kayem Foods, Inc.	sub.csv	{"website": "www.kayem.com", "city": "Chelsea", "fax": "(0617)887-3169", "po_box_zip": "", "zip": "2150", "toll_free": "(0800)426-6100", "op_address_source": "http://www.kayem.com/contact/index.html", "po_box_city": "", "po_box_state": "", "phone": "(0617)889-1600", "state": "MA", "op_po_box_source": "", "address_1": "75 Arlington St.", "address_2": "", "po_box": "", "company_email": "marketing@kayem.com", "id": "176", "company_name": "Kayem Foods, Inc."}
Kilovac Corporation	sub.csv	{"website": "www.kilovac.com", "city": "Berwyn", "fax": "(0805)684-9679", "po_box_zip": "", "zip": "19312", "toll_free": "(0866)258-4745", "op_address_source": "http://www.macraesbluebook.com/search/company.cfm?company=302411;http://www.tycoelectronics.com/aboutus/contact.asp", "po_box_city": "", "po_box_state": "", "phone": "(0610)893-9800", "state": "PA", "op_po_box_source": "", "address_1": "1050 Westlakes Drive", "address_2": "", "po_box": "", "company_email": "shrrelations@melloninvestor.com", "id": "18116", "company_name": "Kilovac Corporation"}
Lawrence Pumps, Inc.	master.csv	{"website": "lawrencepumps.com", "city": "Lawrence", "zip": "1843", "op_address_source": "http://www.lawrencepumps.com/Company/contact.htm", "phone": "8004345248", "state": "MA", "address_1": "371 Market Street.", "address_2": "", "id": "196", "company_name": "Lawrence Pumps, Inc."}
Lawrence Pumps, Inc.	sub.csv	{"website": "www.lawrencepumps.com", "city": "Lawrence", "fax": "(0978)975-4291", "po_box_zip": "", "zip": "1843", "toll_free": "(0800)434-5248", "op_address_source": "http://www.lawrencepumps.com/Company/contact.htm", "po_box_city": "", "po_box_state": "", "phone": "(0800)434-5248", "state": "MA", "op_po_box_source": "", "address_1": "371 Market St.", "address_2": "", "po_box": "", "company_email": "sales@lawrencepumps.com", "id": "196", "company_name": "Lawrence Pumps, Inc."}
Litecontrol Corp.	master.csv	{"website": "litecontrol.com", "city": "Plympton", "zip": "2367", "op_address_source": "http://www.litecontrol.com/contact/", "phone": "7812940100", "state": "MA", "address_1": "65 Spring Street", "address_2": "", "id": "71", "company_name": "Litecontrol Corp."}
Litecontrol Corp.	sub.csv	{"website": "www.litecontrol.com", "city": "Plympton", "fax": "(0781)293-2849", "po_box_zip": "", "zip": "2367", "toll_free": "", "op_address_source": "http://www.litecontrol.com/contact/", "po_box_city": "", "po_box_state": "", "phone": "(0781)294-0100", "state": "MA", "op_po_box_source": "", "address_1": "65 Spring Street", "address_2": "", "po_box": "", "company_email": "info@litecontrol.com", "id": "71", "company_name": "Litecontrol Corp."}
Louis M Gerson Co Inc	sub.csv	{"website": "www.gersonco.com", "city": "Middleboro", "fax": "(0508)947-5442", "po_box_zip": "02346-0600", "zip": "02346-2228", "toll_free": "(0800)225-8623", "op_address_source": "http://www.hoovers.com/company/Louis_M_Gerson_Co_Inc/rfffyjy-1.html", "po_box_city": "Middleboro", "po_box_state": "MA", "phone": "(0508)947-4000", "state": "MA", "op_po_box_source": "", "address_1": "15 Sproat St", "address_2": "", "po_box": "P.O.Box 600", "company_email": "sales@gersonco.com", "id": "2", "company_name": "Louis M Gerson Co Inc"}
Lowell Sun Publishing Co.	master.csv	{"website": "lowellsun.com", "city": "Lowell", "zip": "1854", "op_address_source": "http://www.lowellsun.com/contactus", "phone": "9784591300", "state": "MA", "address_1": "491 Dutton Street.", "address_2": "", "id": "174", "company_name": "Lowell Sun Publishing Co."}
Lowell Sun Publishing Co.	sub.csv	{"website": "www.lowellsun.com", "city": "Lowell", "fax": "(0978)970-4600", "po_box_zip": "", "zip": "1854", "toll_free": "(0800)359-1300", "op_address_source": "http://www.lowellsun.com/contactus", "po_box_city": "", "po_box_state": "", "phone": "(0978)459-1300", "state": "MA", "op_po_box_source": "", "address_1": "491 Dutton St.", "address_2": "", "po_box": "", "company_email": "", "id": "174", "company_name": "Lowell Sun Publishing Co."}
Lynwood Laboratories Inc	master.csv	{"website": "", "city": "Needham", "zip": "02492-3000", "op_address_source": "http://www.hoovers.com/company/Lynwood_Laboratories_Inc/rfjfxry-1.html", "phone": "7814496776", "state": "MA", "address_1": "945 Great Plain Avenue", "address_2": "", "id": "207", "company_name": "Lynwood Laboratories Inc"}
Lynwood Laboratories Inc	sub.csv	{"website": "", "city": "Needham", "fax": "(0781)444-2454", "po_box_zip": "", "zip": "02492-3000", "toll_free": "", "op_address_source": "http://www.hoovers.com/company/Lynwood_Laboratories_Inc/rfjfxry-1.html", "po_box_city": "", "po_box_state": "", "phone": "(0781)449-6776", "state": "MA", "op_po_box_source": "", "address_1": "945 Great Plain Avenue", "address_2": "", "po_box": "", "company_email": "lrvinglk@@aol.com", "id": "207", "company_name": "Lynwood Laboratories Inc"}
M. S. Walker, Inc.	sub.csv	{"website": "www.mswalker.com", "city": "Somerville", "fax": "(0617)776-5808", "po_box_zip": "", "zip": "2143", "toll_free": "(0800)528-2787", "op_address_source": "http://www.hoovers.com/company/M_S_Walker_Inc/rftfkrx-1.html", "po_box_city": "", "po_box_state": "", "phone": "(0617)776-6700", "state": "MA", "op_po_box_source": "", "address_1": "20 3rd Ave.", "address_2": "", "po_box": "", "company_email": "info@mswalker.com", "id": "82", "company_name": "M. S. Walker, Inc."}
Malden International Designs	master.csv	{"website": "malden.cameoez.com", "city": "Wareham", "zip": "2571", "op_address_source": "http://www.bizdays.com/Massachusetts/bizid-351758.html", "phone": "5082911104", "state": "MA", "address_1": "20 Kendrick Road.", "address_2": "", "id": "200", "company_name": "Malden International Designs"}
Malden International Designs	sub.csv	{"website": "http://www.malden.cameoez.com", "city": "Wareham", "fax": "(0508)295-9633", "po_box_zip": "", "zip": "2571", "toll_free": "(0800)426-3578", "op_address_source": "http://www.bizdays.com/Massachusetts/bizid-351758.html", "po_box_city": "", "po_box_state": "", "phone": "(0508)291-1104", "state": "MA", "op_po_box_source": "", "address_1": "20 Kendrick Rd.", "address_2": "", "po_box": "", "company_email": "sales@malden.com", "id": "200", "company_name": "Malden International Designs"}
Mary Meyer Corp.	sub.csv	{"website": "www.marymeyer.com", "city": "Townshend", "fax": "(0802)365-4233", "po_box_zip": "5353", "zip": "5353", "toll_free": "(0800)451-4387", "op_address_source": "http://www.marymeyer.com/contact/", "po_box_city": "Townshend", "po_box_state": "VT", "phone": "(0800)451-4387", "state": "VT", "op_po_box_source": "http://www.marymeyer.com/contact/", "address_1": "1 Teddy Bear Lane", "address_2": "", "po_box": "P.O.Box P.O. Box 275", "company_email": "info@marymeyer.com", "id": "237", "company_name": "Mary Meyer Corp."}
Merrimac Paper Company Inc	sub.csv	{"website": "www.merrimacpaper.com", "city": "Lawrence", "fax": "(0978)975-2754", "po_box_zip": "", "zip": "1843", "toll_free": "", "op_address_source": "http://www.bizdays.com/Massachusetts/bizid-117506.html", "po_box_city": "", "po_box_state": "", "phone": "(0978)683-2754", "state": "MA", "op_po_box_source": "", "address_1": "9 S Canal St", "address_2": "", "po_box": "", "company_email": "info@merrimacpaper.com", "id": "219", "company_name": "Merrimac Paper Company Inc"}
Midcon Investors Inc	master.csv	{"website": "", "city": "Tulsa", "zip": "74103", "op_address_source": "", "phone": "9185877325", "state": "OK", "address_1": "401 South Boston Avenue Ste 3600", "address_2": "", "id": "110643", "company_name": "Midcon Investors Inc"}
Midcon Investors Inc	sub.csv	{"website": "", "city": "Tulsa", "fax": "(0918)581-5081", "po_box_zip": "", "zip": "74103", "toll_free": "", "op_address_source": "", "po_box_city": "", "po_box_state": "", "phone": "(0918)587-7325", "state": "OK", "op_po_box_source": "", "address_1": "401 S Boston Ave Ste 3600", "address_2": "", "po_box": "", "company_email": "", "id": "110643", "company_name": "Midcon Investors Inc"}
Millennium Design Co Usa, Ltd	sub.csv	{"website": "", "city": "New York", "fax": "(0212)354-4443", "po_box_zip": "", "zip": "10017", "toll_free": "", "op_address_source": "", "po_box_city": "", "po_box_state": "", "phone": "(0212)354-4141", "state": "NY", "op_po_box_source": "", "address_1": "12 E 46th St Rm 301", "address_2": "", "po_box": "", "company_email": "", "id": "110646", "company_name": "Millennium Design Co Usa, Ltd"}
Miltex Holdings, Inc	master.csv	{"website": "integra-ls.com", "city": "York", "zip": "17402", "op_address_source": "", "phone": "7178409335", "state": "PA", "address_1": "589 Davies Drive", "address_2": "", "id": "110647", "company_name": "Miltex Holdings, Inc"}
Miltex Holdings, Inc	sub.csv	{"website": "http://www.integra-ls.com", "city": "York", "fax": "(0866)854-8400", "po_box_zip": "", "zip": "17402", "toll_free": "", "op_address_source": "", "po_box_city": "", "po_box_state": "", "phone": "(0717)840-9335", "state": "PA", "op_po_box_source": "", "address_1": "589 Davies Dr", "address_2": "", "po_box": "", "company_email": "integrapm@integra-ls.com", "id": "110647", "company_name": "Miltex Holdings, Inc"}
Monadnock Paper Mills, Inc.	master.csv	{"website": "mpm.com", "city": "Bennington", "zip": "3442", "op_address_source": "http://www.whitepages.com/business/reverse_phone?phone_number=%3E6035883311%3C", "phone": "6035883311", "state": "NH", "address_1": "117 Antrim Road.", "address_2": "", "id": "233", "company_name": "Monadnock Paper Mills, Inc."}
Monadnock Paper Mills, Inc.	sub.csv	{"website": "www.mpm.com", "city": "Bennington", "fax": "(0603)588-3158", "po_box_zip": "", "zip": "3442", "toll_free": "(0800)221-2159", "op_address_source": "http://www.whitepages.com/business/reverse_phone?phone_number=%3E6035883311%3C", "po_box_city": "", "po_box_state": "", "phone": "(0603)588-3311", "state": "NH", "op_po_box_source": "", "address_1": "117 Antrim Rd.", "address_2": "", "po_box": "", "company_email": "sampleroom@mpm.com", "id": "233", "company_name": "Monadnock Paper Mills, Inc."}
Nim-Cor, Inc.	master.csv	{"website": "nimcor.com", "city": "Nashua", "zip": "3063", "op_address_source": "http://www.nimcor.com/contact.html", "phone": "6038892153", "state": "NH", "address_1": "575 Amherst Street.", "address_2": "", "id": "251", "company_name": "Nim-Cor, Inc."}
Nim-Cor, Inc.	sub.csv	{"website": "www.nimcor.com", "city": "Nashua", "fax": "(0603)883-6980", "po_box_zip": "", "zip": "3063", "toll_free": "(0888)464-6267", "op_address_source": "http://www.nimcor.com/contact.html", "po_box_city": "", "po_box_state": "", "phone": "(0603)889-2153", "state": "NH", "op_po_box_source": "", "address_1": "575 Amherst St.", "address_2": "", "po_box": "", "company_email": "customerservice@nimcor.com", "id": "251", "company_name": "Nim-Cor, Inc."}
Pepsi-Cola Methuen Bottlers	master.csv	{"website": "", "city": "Haverhill", "zip": "01835-8029", "op_address_source": "http://www.bizdays.com/Massachusetts/bizid-244624.html", "phone": "9785213923", "state": "MA", "address_1": "261 Neck Road", "address_2": "", "id": "201", "company_name": "Pepsi-Cola Methuen Bottlers"}
Pepsi-Cola Methuen Bottlers	sub.csv	{"website": "", "city": "Haverhill", "fax": "(0978)372-9742", "po_box_zip": "", "zip": "01835-8029", "toll_free": "", "op_address_source": "http://www.bizdays.com/Massachusetts/bizid-244624.html", "po_box_city": "", "po_box_state": "", "phone": "(0978)521-3923", "state": "MA", "op_po_box_source": "", "address_1": "261 Neck Road", "address_2": "", "po_box": "", "company_email": "", "id": "201", "company_name": "Pepsi-Cola Methuen Bottlers"}
Pl 2 Limited Partnership	sub.csv	{"website": "", "city": "Nederland", "fax": "", "po_box_zip": "", "zip": "77627", "toll_free": "", "op_address_source": "http://www.theusaexplorer.com/Texas/Nederland1.html", "po_box_city": "", "po_box_state": "", "phone": "", "state": "TX", "op_po_box_source": "", "address_1": "5375 N Twin City Hwy", "address_2": "", "po_box": "", "company_email": "", "id": "110774", "company_name": "Pl 2 Limited Partnership"}
Pna Holdings, Llc	sub.csv	{"website": "www.partsnow.com", "city": "Middleton", "fax": "(0608)276-9380", "po_box_zip": "", "zip": "53562-4800", "toll_free": "", "op_address_source": "", "po_box_city": "", "po_box_state": "", "phone": "(0608)276-8688", "state": "WI", "op_po_box_source": "", "address_1": "3150 Pleasant View Road", "address_2": "", "po_box": "", "company_email": "", "id": "110782", "company_name": "Pna Holdings, Llc"}
Pneumatic Scale Corp.	master.csv	{"website": "pneumaticscale.com", "city": "Stow", "zip": "44224", "op_address_source": "http://www.pneumaticscale.com/content/menus/psa/contact.aspx", "phone": "3302471800", "state": "OH", "address_1": "4485 Allen Road", "address_2": "", "id": "145", "company_name": "Pneumatic Scale Corp."}
Pneumatic Scale Corp.	sub.csv	{"website": "www.pneumaticscale.com", "city": "Stow", "fax": "(0330)928-7077", "po_box_zip": "", "zip": "44224", "toll_free": "", "op_address_source": "http://www.pneumaticscale.com/content/menus/psa/contact.aspx", "po_box_city": "", "po_box_state": "", "phone": "(0330)247-1800", "state": "OH", "op_po_box_source": "", "address_1": "4485 Allen Road", "address_2": "", "po_box": "", "company_email": "sales@pneumaticscale.com", "id": "145", "company_name": "Pneumatic Scale Corp."}
Pollok, Inc	sub.csv	{"website": "", "city": "El Paso", "fax": "(0915)592-5700", "po_box_zip": "", "zip": "79906", "toll_free": "", "op_address_source": "", "po_box_city": "", "po_box_state": "", "phone": "(0915)592-5700", "state": "TX", "op_po_box_source": "", "address_1": "6 Butterfield Trail Blvd", "address_2": "", "po_box": "", "company_email": "", "id": "110784", "company_name": "Pollok, Inc"}
Prettl Appliance Systems Usa Inc	sub.csv	{"website": "", "city": "Washington", "fax": "(0252)974-5515", "po_box_zip": "", "zip": "27889", "toll_free": "", "op_address_source": "", "po_box_city": "", "po_box_state": "", "phone": "(0252)974-5501", "state": "NC", "op_po_box_source": "", "address_1": "2010 W 15th St", "address_2": "", "po_box": "", "company_email": "", "id": "110789", "company_name": "Prettl Appliance Systems Usa Inc"}
Rogers Foam Corp.	sub.csv	{"website": "www.rogersfoam.com", "city": "Somerville", "fax": "(0617)629-2585", "po_box_zip": "", "zip": "2145", "toll_free": "", "op_address_source": "http://www.rogersfoam.com/contact.htm", "po_box_city": "", "po_box_state": "", "phone": "(0617)623-3010", "state": "MA", "op_po_box_source": "", "address_1": "20 Vernon St.", "address_2": "", "po_box": "", "company_email": "info@rogersfoam.com", "id": "101", "company_name": "Rogers Foam Corp."}
Russelectric, Inc.	master.csv	{"website": "russelectric.com", "city": "Hingham", "zip": "02043-4387", "op_address_source": "http://www.russelectric.com/contact", "phone": "7817496000", "state": "MA", "address_1": "South Shore Parks", "address_2": "", "id": "65", "company_name": "Russelectric, Inc."}
Russelectric, Inc.	sub.csv	{"website": "www.russelectric.com", "city": "Hingham", "fax": "(0781)749-4205", "po_box_zip": "", "zip": "02043-4387", "toll_free": "(0800)225-5250", "op_address_source": "http://www.russelectric.com/contact", "po_box_city": "", "po_box_state": "", "phone": "(0781)749-6000", "state": "MA", "op_po_box_source": "", "address_1": "South Shore Park", "address_2": "", "po_box": "", "company_email": "info@russelectric.com", "id": "65", "company_name": "Russelectric, Inc."}
Sapphire Engineering, Inc.	sub.csv	{"website": "www.sapphireengineering.com", "city": "Pocasset", "fax": "(0508)563-6908", "po_box_zip": "", "zip": "2559", "toll_free": "", "op_address_source": "http://investing.businessweek.com/research/stocks/private/people.asp?privcapId=22704862", "po_box_city": "", "po_box_state": "", "phone": "(0508)563-5531", "state": "MA", "op_po_box_source": "", "address_1": "53 Portside Dr.", "address_2": "", "po_box": "", "company_email": "info@sapphireengineering.com", "id": "113", "company_name": "Sapphire Engineering, Inc."}
Shawsheen Rubber Co., Inc.	master.csv	{"website": "shawsheencc.com", "city": "Andover", "zip": "1810", "op_address_source": "http://www.bizdays.com/Massachusetts/bizid-613743.html", "phone": "9784751710", "state": "MA", "address_1": "220 Andover Street.", "address_2": "", "id": "186", "company_name": "Shawsheen Rubber Co., Inc."}
Shawsheen Rubber Co., Inc.	sub.csv	{"website": "www.shawsheencc.com", "city": "Andover", "fax": "(0978)475-8603", "po_box_zip": "1810", "zip": "1810", "toll_free": "(0800)225-1516", "op_address_source": "http://www.bizdays.com/Massachusetts/bizid-613743.html", "po_box_city": "Andover", "po_box_state": "MA", "phone": "(0978)475-1710", "state": "MA", "op_po_box_source": "http://www.bizdays.com/Massachusetts/bizid-613743.html", "address_1": "220 Andover St.", "address_2": "", "po_box": "P.O.Box P.O. Box 4296", "company_email": "info@cc.com", "id": "186", "company_name": "Shawsheen Rubber Co., Inc."}
Shusters Family Partnership Lp	master.csv	{"website": "http://shusters.com", "city": "Irwin", "zip": "15642", "op_address_source": "", "phone": "4123510979", "state": "PA", "address_1": "2920 Clay Pike", "address_2": "", "id": "110889", "company_name": "Shusters Family Partnership Lp"}
Shusters Family Partnership Lp	sub.csv	{"website": "http://shusters.com", "city": "Irwin", "fax": "", "po_box_zip": "", "zip": "15642", "toll_free": "", "op_address_source": "", "po_box_city": "", "po_box_state": "", "phone": "(0412)351-0979", "state": "PA", "op_po_box_source": "", "address_1": "2920 Clay Pike", "address_2": "", "po_box": "", "company_email": "", "id": "110889", "company_name": "Shusters Family Partnership Lp"}
Sierra Optical	sub.csv	{"website": "", "city": "San Diego", "fax": "(0858)356-7269", "po_box_zip": "", "zip": "92123", "toll_free": "", "op_address_source": "", "po_box_city": "", "po_box_state": "", "phone": "(0858)309-6050", "state": "CA", "op_po_box_source": "", "address_1": "4255 Ruffin Rd", "address_2": "", "po_box": "", "company_email": "", "id": "110892", "company_name": "Sierra Optical"}
Smith Industries Incorporated	master.csv	{"website": "smithindustries.us", "city": "Capitol Heights", "zip": "20743", "op_address_source": "", "phone": "3017731266", "state": "MD", "address_1": "2001 Kenilworth Avenue", "address_2": "", "id": "110895", "company_name": "Smith Industries Incorporated"}
Smith Industries Incorporated	sub.csv	{"website": "www.smithindustries.us", "city": "Capitol Heights", "fax": "(0301)773-7346", "po_box_zip": "", "zip": "20743", "toll_free": "", "op_address_source": "", "po_box_city": "", "po_box_state": "", "phone": "(0301)773-1266", "state": "MD", "op_po_box_source": "", "address_1": "2001 Kenilworth Ave", "address_2": "", "po_box": "", "company_email": "", "id": "110895", "company_name": "Smith Industries Incorporated"}
S-N Bedding Co Inc	master.csv	{"website": "serta.com", "city": "Middleboro", "zip": "02346-1404", "op_address_source": "http://www.whitepages.com/business/reverse_phone?phone_number=9722788006", "phone": "5089464700", "state": "MA", "address_1": "61 Leona Drive", "address_2": "", "id": "171", "company_name": "S-N Bedding Co Inc"}
S-N Bedding Co Inc	sub.csv	{"website": "http://www.serta.com", "city": "Middleboro", "fax": "(0508)946-2371", "po_box_zip": "", "zip": "02346-1404", "toll_free": "", "op_address_source": "http://www.whitepages.com/business/reverse_phone?phone_number=9722788006", "po_box_city": "", "po_box_state": "", "phone": "(0508)946-4700", "state": "MA", "op_po_box_source": "", "address_1": "61 Leona Drive", "address_2": "", "po_box": "", "company_email": "", "id": "171", "company_name": "S-N Bedding Co Inc"}
Softmart Commercial Services, Inc	sub.csv	{"website": "http://www.softmart.com", "city": "Downingtown", "fax": "(0610)518-3013", "po_box_zip": "", "zip": "19335", "toll_free": "", "op_address_source": "", "po_box_city": "", "po_box_state": "", "phone": "(0610)518-4000", "state": "PA", "op_po_box_source": "", "address_1": "450 Acorn Ln", "address_2": "", "po_box": "", "company_email": "survey@softmart.com", "id": "110897", "company_name": "Softmart Commercial Services, Inc"}
Standard-Thomson Corp.	sub.csv	{"website": "www.standard-thomson.com", "city": "Waltham", "fax": "(0781)894-2235", "po_box_zip": "", "zip": "2454", "toll_free": "", "op_address_source": "http://www.bizdays.com/Massachusetts/bizid-544065.html", "po_box_city": "", "po_box_state": "", "phone": "(0781)894-7310", "state": "MA", "op_po_box_source": "", "address_1": "152 Grove St.", "address_2": "", "po_box": "", "company_email": "", "id": "147", "company_name": "Standard-Thomson Corp."}
Superior Nut Co.	sub.csv	{"website": "www.superiornut.com", "city": "Cambridge", "fax": "(0617)876-8225", "po_box_zip": "2141", "zip": "2141", "toll_free": "(0800)251-6060", "op_address_source": "http://www.bizdays.com/Massachusetts/bizid-77874.html", "po_box_city": "Cambridge", "po_box_state": "MA", "phone": "(0617)876-3808", "state": "MA", "op_po_box_source": "http://www.superiornut.com/environment.html", "address_1": "225 Monsignor O'Brien Hwy.", "address_2": "", "po_box": "P.O.Box P.O. Box 410086", "company_email": "info@superiornut.com", "id": "117", "company_name": "Superior Nut Co."}
SW Industries Inc	sub.csv	{"website": "http://www.xerium.com", "city": "Westborough", "fax": "(0508)616-9479", "po_box_zip": "", "zip": "01581-1786", "toll_free": "", "op_address_source": "http://maps.google.co.in/maps?q=1+Technology+Dr%09%09Westborough%09MA&oe=utf-8&rls=org.mozilla:en-US:official&client=firefox-a&um=1&ie=UTF-8&split=0&gl=in&ei=vyDRSejbEMWNkAX3i6nOCQ&sa=X&oi=geocode_result&resnum=1&ct=title", "po_box_city": "", "po_box_state": "", "phone": "(0508)616-9458", "state": "MA", "op_po_box_source": "", "address_1": "1 Technology Dr", "address_2": "", "po_box": "", "company_email": "", "id": "152", "company_name": "SW Industries Inc"}
The Hotel Company Inc	sub.csv	{"website": "http://www.thehotelcompany.com", "city": "Howell", "fax": "(0732)367-1076", "po_box_zip": "", "zip": "7731", "toll_free": "", "op_address_source": "", "po_box_city": "", "po_box_state": "", "phone": "(0732)905-6399", "state": "NJ", "op_po_box_source": "", "address_1": "1191 Lkwod Farmingdale Rd", "address_2": "", "po_box": "", "company_email": "", "id": "110988", "company_name": "The Hotel Company Inc"}
Thermal Dynamics Corp.	master.csv	{"website": "thermadyne.com", "city": "West Lebanon", "zip": "3784", "op_address_source": "http://investing.businessweek.com/research/stocks/private/people.asp?privcapId=24929294", "phone": "6032985711", "state": "NH", "address_1": "82 Benning Street.", "address_2": "", "id": "247", "company_name": "Thermal Dynamics Corp."}
Thermal Dynamics Corp.	sub.csv	{"website": "www.thermadyne.com", "city": "West Lebanon", "fax": "(0603)298-0558", "po_box_zip": "", "zip": "3784", "toll_free": "(0800)752-7621", "op_address_source": "http://investing.businessweek.com/research/stocks/private/people.asp?privcapId=24929294", "po_box_city": "", "po_box_state": "", "phone": "(0603)298-5711", "state": "NH", "op_po_box_source": "", "address_1": "82 Benning St.", "address_2": "", "po_box": "", "company_email": "sales@thermadyne.com", "id": "247", "company_name": "Thermal Dynamics Corp."}
Tillotson Corporation	master.csv	{"website": "", "city": "Everett", "zip": "2149", "op_address_source": "http://investing.businessweek.com/research/stocks/private/people.asp?privcapId=4268850", "phone": "6173879400", "state": "MA", "address_1": "59 Waters Avenue", "address_2": "", "id": "84", "company_name": "Tillotson Corporation"}
Tillotson Corporation	sub.csv	{"website": "", "city": "Everett", "fax": "(0617)389-9639", "po_box_zip": "", "zip": "2149", "toll_free": "", "op_address_source": "http://investing.businessweek.com/research/stocks/private/people.asp?privcapId=4268850", "po_box_city": "", "po_box_state": "", "phone": "(0617)387-9400", "state": "MA", "op_po_box_source": "", "address_1": "59 Waters Avenue", "address_2": "", "po_box": "", "company_email": "", "id": "84", "company_name": "Tillotson Corporation"}
Trevarrow Inc	master.csv	{"website": "trevarrowinc.com", "city": "Auburn Hills", "zip": "48326-2648", "op_address_source": "http://www.trevarrowinc.com/Index.aspx?section=TrevarrowShowroomLocations", "phone": "8004821948", "state": "MI", "address_1": "1295 North Opdyke Road", "address_2": "", "id": "18462", "company_name": "Trevarrow Inc"}
Trevarrow Inc	sub.csv	{"website": "www.trevarrowinc.com", "city": "Auburn Hills", "fax": "(0248)377-2392", "po_box_zip": "", "zip": "48326-2648", "toll_free": "", "op_address_source": "http://www.trevarrowinc.com/Index.aspx?section=TrevarrowShowroomLocations", "po_box_city": "", "po_box_state": "", "phone": "(0800)482-1948", "state": "MI", "op_po_box_source": "", "address_1": "1295 N Opdyke Road", "address_2": "", "po_box": "", "company_email": "sales@trevarrowinc.com", "id": "18462", "company_name": "Trevarrow Inc"}
U S Plastics Corporation	sub.csv	{"website": "http://www.usplastic.com", "city": "Lima", "fax": "(0800)854-5498", "po_box_zip": "", "zip": "45801-3196", "toll_free": "", "op_address_source": "https://www.usplastic.com/content/contact.aspx?clickid=footer", "po_box_city": "", "po_box_state": "", "phone": "(0800)809-4217", "state": "OH", "op_po_box_source": "", "address_1": "1390 Neubrecht Road", "address_2": "", "po_box": "", "company_email": "usp@usplastic.com", "id": "133", "company_name": "U S Plastics Corporation"}
United Curtain Co., Inc.	master.csv	{"website": "", "city": "Boston", "zip": "2111", "op_address_source": "http://www.bizdays.com/Massachusetts/bizid-68345.html", "phone": "6174264838", "state": "MA", "address_1": "120 Kingston Street.", "address_2": "", "id": "214", "company_name": "United Curtain Co., Inc."}
United Curtain Co., Inc.	sub.csv	{"website": "", "city": "Boston", "fax": "(0617)695-2928", "po_box_zip": "", "zip": "2111", "toll_free": "", "op_address_source": "http://www.bizdays.com/Massachusetts/bizid-68345.html", "po_box_city": "", "po_box_state": "", "phone": "(0617)426-4838", "state": "MA", "op_po_box_source": "", "address_1": "120 Kingston St.", "address_2": "", "po_box": "", "company_email": "unitedcurtain@aol.com", "id": "214", "company_name": "United Curtain Co., Inc."}
Utility Shared Services Corp	master.csv	{"website": "", "city": "New Gloucester", "zip": "04260-5100", "op_address_source": "", "phone": "2076886300", "state": "ME", "address_1": "52 Farm View Drive", "address_2": "", "id": "111051", "company_name": "Utility Shared Services Corp"}
Utility Shared Services Corp	sub.csv	{"website": "", "city": "New Gloucester", "fax": "", "po_box_zip": "", "zip": "04260-5100", "toll_free": "", "op_address_source": "", "po_box_city": "", "po_box_state": "", "phone": "(0207)688-6300", "state": "ME", "op_po_box_source": "", "address_1": "52 Farm View Drive", "address_2": "", "po_box": "", "company_email": "", "id": "111051", "company_name": "Utility Shared Services Corp"}
Valpey-Fisher Corporation	sub.csv	{"website": "www.valpeyfisher.com", "city": "Hopkinton", "fax": "(0631)471-2040", "po_box_zip": "", "zip": "01748-2204", "toll_free": "(0800)982-5737", "op_address_source": "http://www.valpeyfisher.com/about-us-worldwide-sales-usa-canada.htm", "po_box_city": "", "po_box_state": "", "phone": "(0508)435-6831", "state": "MA", "op_po_box_source": "", "address_1": "75 South Street", "address_2": "", "po_box": "", "company_email": "sales@valpeyfisher.com", "id": "210", "company_name": "Valpey-Fisher Corporation"}
White Rock Distilleries, Inc.	master.csv	{"website": "whiterockdistillieries.com", "city": "Lewiston", "zip": "4241", "op_address_source": "http://investing.businessweek.com/research/stocks/private/people.asp?privcapId=28373680", "phone": "2077831433", "state": "ME", "address_1": "21 Saratoga Street.", "address_2": "", "id": "241", "company_name": "White Rock Distilleries, Inc."}
White Rock Distilleries, Inc.	sub.csv	{"website": "www.whiterockdistillieries.com", "city": "Lewiston", "fax": "(0207)783-8409", "po_box_zip": "04241-1829", "zip": "4241", "toll_free": "(0800)628-5441", "op_address_source": "http://investing.businessweek.com/research/stocks/private/people.asp?privcapId=28373680", "po_box_city": "Lewiston", "po_box_state": "ME", "phone": "(0207)783-1433", "state": "ME", "op_po_box_source": "http://www.bizdays.com/Maine/bizid-562578.html;http://www.spoke.com/secure/company/companyDossier.spoke?uid=%28center%2Ccompany%2C55866928%29&dispatch=view", "address_1": "21 Saratoga St.", "address_2": "", "po_box": "P.O.Box 1829", "company_email": "jwerda@whiterockdistilleries.com", "id": "241", "company_name": "White Rock Distilleries, Inc."}
Winthrop Printing Co.	sub.csv	{"website": "www.winprinting.com", "city": "Boston", "fax": "(0617)268-6735", "po_box_zip": "", "zip": "2127", "toll_free": "", "op_address_source": "http://investing.businessweek.com/research/stocks/private/people.asp?privcapId=6894040", "po_box_city": "", "po_box_state": "", "phone": "(0617)268-9660", "state": "MA", "op_po_box_source": "", "address_1": "235 Old Colony Ave.", "address_2": "", "po_box": "", "company_email": "", "id": "100", "company_name": "Winthrop Printing Co."}
Wollaston Alloys, Inc.	sub.csv	{"website": "www.wollastonalloys.com", "city": "Braintree", "fax": "(0781)848-3993", "po_box_zip": "", "zip": "2184", "toll_free": "", "op_address_source": "http://investing.businessweek.com/research/stocks/private/people.asp?privcapId=6788531", "po_box_city": "", "po_box_state": "", "phone": "(0781)848-3333", "state": "MA", "op_po_box_source": "", "address_1": "205 Wood Rd.", "address_2": "", "po_box": "", "company_email": "info@wollastonalloys.com", "id": "215", "company_name": "Wollaston Alloys, Inc."}
Wolseley Investments, Inc	master.csv	{"website": "", "city": "Newport News", "zip": "23602", "op_address_source": "", "phone": "7578747795", "state": "VA", "address_1": "12500 Jefferson Avenue", "address_2": "", "id": "111112", "company_name": "Wolseley Investments, Inc"}
Wolseley Investments, Inc	sub.csv	{"website": "", "city": "Newport News", "fax": "(0407)856-5380", "po_box_zip": "", "zip": "23602", "toll_free": "", "op_address_source": "", "po_box_city": "", "po_box_state": "", "phone": "(0757)874-7795", "state": "VA", "op_po_box_source": "", "address_1": "12500 Jefferson Ave", "address_2": "", "po_box": "", "company_email": "", "id": "111112", "company_name": "Wolseley Investments, Inc"}
Worthen Industries, Inc.	sub.csv	{"website": "www.worthenind.com", "city": "Nashua", "fax": "(0616)742-8995", "po_box_zip": "", "zip": "3060", "toll_free": "", "op_address_source": "http://investing.businessweek.com/research/stocks/private/people.asp?privcapId=4354277", "po_box_city": "", "po_box_state": "", "phone": "(0603)888-5443", "state": "NH", "op_po_box_source": "", "address_1": "3 E. Spit Brook Rd.", "address_2": "", "po_box": "", "company_email": "info@worthenind.com", "id": "199", "company_name": "Worthen Industries, Inc."}
